CCSDS_OMM_VERS = 2.0
CREATION_DATE  = 
ORIGINATOR     = 

OBJECT_NAME    = 1998-067XK
OBJECT_ID      = 1998-067XK
CENTER_NAME    = EARTH
REF_FRAME      = TEME
TIME_SYSTEM    = UTC
MEAN_ELEMENT_THEORY = SGP/SGP4

EPOCH          = 2026-01-27T00:28:17.986368
MEAN_MOTION    = 15.78430092
ECCENTRICITY   = .00041181
INCLINATION    = 51.6246
RA_OF_ASC_NODE = 265.6269
ARG_OF_PERICENTER = 159.2961
MEAN_ANOMALY   = 200.8207

EPHEMERIS_TYPE = 0
CLASSIFICATION_TYPE = U
NORAD_CAT_ID   = 65731
ELEMENT_SET_NO = 999
REV_AT_EPOCH   = 2026
BSTAR          = .12168113E-2
MEAN_MOTION_DOT = .220266E-2
MEAN_MOTION_DDOT = 0

CCSDS_OMM_VERS = 2.0
CREATION_DATE  = 
ORIGINATOR     = 

OBJECT_NAME    = RSP-03
OBJECT_ID      = 1998-067XL
CENTER_NAME    = EARTH
REF_FRAME      = TEME
TIME_SYSTEM    = UTC
MEAN_ELEMENT_THEORY = SGP/SGP4

EPOCH          = 2026-01-27T16:38:06.526176
MEAN_MOTION    = 15.88612120
ECCENTRICITY   = .00054492
INCLINATION    = 51.6204
RA_OF_ASC_NODE = 259.5751
ARG_OF_PERICENTER = 183.7565
MEAN_ANOMALY   = 176.3401

EPHEMERIS_TYPE = 0
CLASSIFICATION_TYPE = U
NORAD_CAT_ID   = 65732
ELEMENT_SET_NO = 999
REV_AT_EPOCH   = 2041
BSTAR          = .14093464E-2
MEAN_MOTION_DOT = .423395E-2
MEAN_MOTION_DDOT = 0

CCSDS_OMM_VERS = 2.0
CREATION_DATE  = 
ORIGINATOR     = 

OBJECT_NAME    = YOTSUBA-KULOVER
OBJECT_ID      = 1998-067XN
CENTER_NAME    = EARTH
REF_FRAME      = TEME
TIME_SYSTEM    = UTC
MEAN_ELEMENT_THEORY = SGP/SGP4

EPOCH          = 2026-01-27T16:16:04.264896
MEAN_MOTION    = 15.67857888
ECCENTRICITY   = .00044117
INCLINATION    = 51.6260
RA_OF_ASC_NODE = 267.7968
ARG_OF_PERICENTER = 173.8256
MEAN_ANOMALY   = 186.2796

EPHEMERIS_TYPE = 0
CLASSIFICATION_TYPE = U
NORAD_CAT_ID   = 65941
ELEMENT_SET_NO = 999
REV_AT_EPOCH   = 1704
BSTAR          = .11213379E-2
MEAN_MOTION_DOT = .127511E-2
MEAN_MOTION_DDOT = 0

CCSDS_OMM_VERS = 2.0
CREATION_DATE  = 
ORIGINATOR     = 

OBJECT_NAME    = BOTAN
OBJECT_ID      = 1998-067XP
CENTER_NAME    = EARTH
REF_FRAME      = TEME
TIME_SYSTEM    = UTC
MEAN_ELEMENT_THEORY = SGP/SGP4

EPOCH          = 2026-01-27T18:23:34.209024
MEAN_MOTION    = 15.77524715
ECCENTRICITY   = .00054323
INCLINATION    = 51.6211
RA_OF_ASC_NODE = 264.6124
ARG_OF_PERICENTER = 186.1041
MEAN_ANOMALY   = 173.9894

EPHEMERIS_TYPE = 0
CLASSIFICATION_TYPE = U
NORAD_CAT_ID   = 65942
ELEMENT_SET_NO = 999
REV_AT_EPOCH   = 1709
BSTAR          = .15256644E-2
MEAN_MOTION_DOT = .266897E-2
MEAN_MOTION_DDOT = 0

CCSDS_OMM_VERS = 2.0
CREATION_DATE  = 
ORIGINATOR     = 

OBJECT_NAME    = E-KAGAKU-1
OBJECT_ID      = 1998-067XQ
CENTER_NAME    = EARTH
REF_FRAME      = TEME
TIME_SYSTEM    = UTC
MEAN_ELEMENT_THEORY = SGP/SGP4

EPOCH          = 2026-01-27T16:16:20.649792
MEAN_MOTION    = 15.67799093
ECCENTRICITY   = .00031833
INCLINATION    = 51.6283
RA_OF_ASC_NODE = 267.8070
ARG_OF_PERICENTER = 182.6680
MEAN_ANOMALY   = 177.4300

EPHEMERIS_TYPE = 0
CLASSIFICATION_TYPE = U
NORAD_CAT_ID   = 65943
ELEMENT_SET_NO = 999
REV_AT_EPOCH   = 1704
BSTAR          = .11012492E-2
MEAN_MOTION_DOT = .124849E-2
MEAN_MOTION_DDOT = 0

CCSDS_OMM_VERS = 2.0
CREATION_DATE  = 
ORIGINATOR     = 

OBJECT_NAME    = HRC MONOBLOCK CAMERA
OBJECT_ID      = 1998-067XR
CENTER_NAME    = EARTH
REF_FRAME      = TEME
TIME_SYSTEM    = UTC
MEAN_ELEMENT_THEORY = SGP/SGP4

EPOCH          = 2026-01-27T16:52:15.334464
MEAN_MOTION    = 15.57999056
ECCENTRICITY   = .00004514
INCLINATION    = 51.6293
RA_OF_ASC_NODE = 271.7201
ARG_OF_PERICENTER = 55.4630
MEAN_ANOMALY   = 304.6405

EPHEMERIS_TYPE = 0
CLASSIFICATION_TYPE = U
NORAD_CAT_ID   = 66052
ELEMENT_SET_NO = 999
REV_AT_EPOCH   = 1599
BSTAR          = .70948442E-3
MEAN_MOTION_DOT = .54071E-3
MEAN_MOTION_DDOT = 0

CCSDS_OMM_VERS = 2.0
CREATION_DATE  = 
ORIGINATOR     = 

OBJECT_NAME    = HTV-X1
OBJECT_ID      = 2025-241A
CENTER_NAME    = EARTH
REF_FRAME      = TEME
TIME_SYSTEM    = UTC
MEAN_ELEMENT_THEORY = SGP/SGP4

EPOCH          = 2026-01-27T20:28:45.543360
MEAN_MOTION    = 15.48232561
ECCENTRICITY   = .00111651
INCLINATION    = 51.6319
RA_OF_ASC_NODE = 274.2218
ARG_OF_PERICENTER = 36.9017
MEAN_ANOMALY   = 323.2737

EPHEMERIS_TYPE = 0
CLASSIFICATION_TYPE = U
NORAD_CAT_ID   = 66174
ELEMENT_SET_NO = 999
REV_AT_EPOCH   = 51
BSTAR          = .19486013E-3
MEAN_MOTION_DOT = .10035E-3
MEAN_MOTION_DDOT = 0

CCSDS_OMM_VERS = 2.0
CREATION_DATE  = 
ORIGINATOR     = 

OBJECT_NAME    = SZ-21 MODULE
OBJECT_ID      = 2025-246C
CENTER_NAME    = EARTH
REF_FRAME      = TEME
TIME_SYSTEM    = UTC
MEAN_ELEMENT_THEORY = SGP/SGP4

EPOCH          = 2026-01-27T13:59:02.389920
MEAN_MOTION    = 15.65450528
ECCENTRICITY   = .0003262
INCLINATION    = 41.4754
RA_OF_ASC_NODE = 95.8080
ARG_OF_PERICENTER = 246.4687
MEAN_ANOMALY   = 113.5811

EPHEMERIS_TYPE = 0
CLASSIFICATION_TYPE = U
NORAD_CAT_ID   = 66515
ELEMENT_SET_NO = 999
REV_AT_EPOCH   = 1162
BSTAR          = .37527E-3
MEAN_MOTION_DOT = .38475E-3
MEAN_MOTION_DDOT = 0

CCSDS_OMM_VERS = 2.0
CREATION_DATE  = 
ORIGINATOR     = 

OBJECT_NAME    = SHENZHOU-22
OBJECT_ID      = 2025-272A
CENTER_NAME    = EARTH
REF_FRAME      = TEME
TIME_SYSTEM    = UTC
MEAN_ELEMENT_THEORY = SGP/SGP4

EPOCH          = 2026-01-27T20:50:23.939232
MEAN_MOTION    = 15.61194867
ECCENTRICITY   = .00095071
INCLINATION    = 41.4671
RA_OF_ASC_NODE = 96.2532
ARG_OF_PERICENTER = 17.8784
MEAN_ANOMALY   = 342.2387

EPHEMERIS_TYPE = 0
CLASSIFICATION_TYPE = U
NORAD_CAT_ID   = 66645
ELEMENT_SET_NO = 999
REV_AT_EPOCH   = 26764
BSTAR          = .29085661E-3
MEAN_MOTION_DOT = .25117E-3
MEAN_MOTION_DDOT = 0

CCSDS_OMM_VERS = 2.0
CREATION_DATE  = 
ORIGINATOR     = 

OBJECT_NAME    = SOYUZ-MS 28
OBJECT_ID      = 2025-275A
CENTER_NAME    = EARTH
REF_FRAME      = TEME
TIME_SYSTEM    = UTC
MEAN_ELEMENT_THEORY = SGP/SGP4

EPOCH          = 2026-01-27T20:28:45.543360
MEAN_MOTION    = 15.48232561
ECCENTRICITY   = .00111651
INCLINATION    = 51.6319
RA_OF_ASC_NODE = 274.2218
ARG_OF_PERICENTER = 36.9017
MEAN_ANOMALY   = 323.2737

EPHEMERIS_TYPE = 0
CLASSIFICATION_TYPE = U
NORAD_CAT_ID   = 66664
ELEMENT_SET_NO = 999
REV_AT_EPOCH   = 128
BSTAR          = .19486013E-3
MEAN_MOTION_DOT = .10035E-3
MEAN_MOTION_DDOT = 0

CCSDS_OMM_VERS = 2.0
CREATION_DATE  = 
ORIGINATOR     = 

OBJECT_NAME    = DUPLEX
OBJECT_ID      = 1998-067XS
CENTER_NAME    = EARTH
REF_FRAME      = TEME
TIME_SYSTEM    = UTC
MEAN_ELEMENT_THEORY = SGP/SGP4

EPOCH          = 2026-01-27T16:57:50.121504
MEAN_MOTION    = 15.53329312
ECCENTRICITY   = .00018582
INCLINATION    = 51.6305
RA_OF_ASC_NODE = 273.9941
ARG_OF_PERICENTER = 65.0892
MEAN_ANOMALY   = 295.0291

EPHEMERIS_TYPE = 0
CLASSIFICATION_TYPE = U
NORAD_CAT_ID   = 66906
ELEMENT_SET_NO = 999
REV_AT_EPOCH   = 875
BSTAR          = .5062545E-3
MEAN_MOTION_DOT = .3221E-3
MEAN_MOTION_DDOT = 0

CCSDS_OMM_VERS = 2.0
CREATION_DATE  = 
ORIGINATOR     = 

OBJECT_NAME    = 1998-067XT
OBJECT_ID      = 1998-067XT
CENTER_NAME    = EARTH
REF_FRAME      = TEME
TIME_SYSTEM    = UTC
MEAN_ELEMENT_THEORY = SGP/SGP4

EPOCH          = 2026-01-27T16:20:53.475072
MEAN_MOTION    = 15.59016939
ECCENTRICITY   = .00029618
INCLINATION    = 51.6278
RA_OF_ASC_NODE = 273.0721
ARG_OF_PERICENTER = 136.2829
MEAN_ANOMALY   = 223.8399

EPHEMERIS_TYPE = 0
CLASSIFICATION_TYPE = U
NORAD_CAT_ID   = 66907
ELEMENT_SET_NO = 999
REV_AT_EPOCH   = 876
BSTAR          = .13928127E-2
MEAN_MOTION_DOT = .111639E-2
MEAN_MOTION_DDOT = 0

