1998-067XK              
1 65731U 98067XK  26027.01965262  .00220266  00000+0  12168-2 0  9997
2 65731  51.6246 265.6269 0004118 159.2961 200.8207 15.78430092 20269
RSP-03                  
1 65732U 98067XL  26027.69313109  .00423395  00000+0  14093-2 0  9996
2 65732  51.6204 259.5751 0005449 183.7565 176.3401 15.88612120 20417
YOTSUBA-KULOVER         
1 65941U 98067XN  26027.67782714  .00127511  00000+0  11213-2 0  9990
2 65941  51.6260 267.7968 0004411 173.8256 186.2796 15.67857888 17048
BOTAN                   
1 65942U 98067XP  26027.76636816  .00266897  00000+0  15257-2 0  9995
2 65942  51.6211 264.6124 0005432 186.1041 173.9894 15.77524715 17096
E-KAGAKU-1              
1 65943U 98067XQ  26027.67801678  .00124849  00000+0  11012-2 0  9991
2 65943  51.6283 267.8070 0003183 182.6680 177.4300 15.67799093 17040
HRC MONOBLOCK CAMERA    
1 66052U 98067XR  26027.70295526  .00054071  00000+0  70948-3 0  9999
2 66052  51.6293 271.7201 0000451  55.4630 304.6405 15.57999056 15992
HTV-X1                  
1 66174U 25241A   26027.85330490  .00010035  00000+0  19486-3 0  9996
2 66174  51.6319 274.2218 0011165  36.9017 323.2737 15.48232561   517
SZ-21 MODULE            
1 66515U 25246C   26027.58266655  .00038475  00000+0  37527-3 0  9995
2 66515  41.4754  95.8080 0003262 246.4687 113.5811 15.65450528 11621
SHENZHOU-22             
1 66645U 25272A   26027.86833263  .00025117  00000+0  29086-3 0  9994
2 66645  41.4671  96.2532 0009507  17.8784 342.2387 15.61194867267647
SOYUZ-MS 28             
1 66664U 25275A   26027.85330490  .00010035  00000+0  19486-3 0  9997
2 66664  51.6319 274.2218 0011165  36.9017 323.2737 15.48232561  1286
DUPLEX                  
1 66906U 98067XS  26027.70683011  .00032210  00000+0  50625-3 0  9998
2 66906  51.6305 273.9941 0001858  65.0892 295.0291 15.53329312  8758
1998-067XT              
1 66907U 98067XT  26027.68117448  .00111639  00000+0  13928-2 0  9999
2 66907  51.6278 273.0721 0002961 136.2829 223.8399 15.59016939  8765
